[{"OBJECT_NAME":"STARLINK-34184","OBJECT_ID":"2025-102B","EPOCH":"2026-03-09T12:22:42.655872","MEAN_MOTION":14.98330419,"ECCENTRICITY":0.000347,"INCLINATION":70.0003,"RA_OF_ASC_NODE":114.9946,"ARG_OF_PERICENTER":269.9229,"MEAN_ANOMALY":90.1532,"EPHEMERIS_TYPE":0,"CLASSIFICATION_TYPE":"U","NORAD_CAT_ID":64023,"ELEMENT_SET_NO":999,"REV_AT_EPOCH":4593,"BSTAR":0.0001242141,"MEAN_MOTION_DOT":1.389e-5,"MEAN_MOTION_DDOT":0},{"OBJECT_NAME":"ARIANE 5 R\/B","OBJECT_ID":"2000-054C","EPOCH":"2026-03-09T12:47:14.332128","MEAN_MOTION":2.2422874,"ECCENTRICITY":0.71832443,"INCLINATION":6.9919,"RA_OF_ASC_NODE":258.8856,"ARG_OF_PERICENTER":211.8948,"MEAN_ANOMALY":70.4669,"EPHEMERIS_TYPE":0,"CLASSIFICATION_TYPE":"U","NORAD_CAT_ID":26496,"ELEMENT_SET_NO":999,"REV_AT_EPOCH":20873,"BSTAR":-5.602796e-6,"MEAN_MOTION_DOT":-7.5e-7,"MEAN_MOTION_DDOT":0}]
